{"spkid": "50334459", "covariance": {"epoch": "2459909.5", "data": [["2.626553167456735E-15", "-5.330216663959497E-15", "-2.251681118726982E-13", "-1.945875045515789E-13", "4.802668661830326E-13", "1.277380125169306E-15"], ["-5.330216663959497E-15", "1.081990490571601E-14", "4.959600962641655E-13", "3.983334614527497E-13", "-9.626252974513701E-13", "2.679749135480753E-15"], ["-2.251681118726982E-13", "4.959600962641655E-13", "5.888739908904664E-10", "6.491035615546565E-11", "1.588542018290728E-10", "7.310195305739837E-11"], ["-1.945875045515789E-13", "3.983334614527497E-13", "6.491035615546565E-11", "1.406291603812755E-10", "-1.273960915371818E-10", "-3.669949954640417E-11"], ["4.802668661830326E-13", "-9.626252974513701E-13", "1.588542018290728E-10", "-1.273960915371818E-10", "2.752718498003941E-10", "6.196749568704725E-11"], ["1.277380125169306E-15", "2.679749135480753E-15", "7.310195305739837E-11", "-3.669949954640417E-11", "6.196749568704725E-11", "6.566561750034242E-11"]], "elements": [{"label": "e", "sigma": 5.12499089507165e-08, "name": "e", "title": "eccentricity", "value": ".5124688541144977", "units": null}, {"label": "q", "units": "au", "title": "perihelion distance", "value": ".9834945113780142", "name": "q", "sigma": 1.0401877189102e-07}, {"name": "tp", "sigma": 2.42667260027072e-05, "units": "TDB", "title": "time of perihelion passage", "value": "2460211.958643224917", "label": "tp"}, {"label": "node", "sigma": 1.18587166414109e-05, "name": "om", "units": "deg", "title": "longitude of the ascending node", "value": "86.69414694789955"}, {"label": "peri", "name": "w", "sigma": 1.65913185069902e-05, "units": "deg", "title": "argument of perihelion", "value": "217.9461533011508"}, {"label": "i", "units": "deg", "value": "21.09881109942056", "title": "inclination", "sigma": 8.1034324517665e-06, "name": "i"}], "labels": ["e", "q", "tp", "node", "peri", "i"]}, "elements": [{"label": "e", "title": "eccentricity", "value": ".5136890937748939", "units": null, "name": "e", "sigma": "5.1011E-8"}, {"units": "au", "value": "2.01628775504938", "title": "semi-major axis", "name": "a", "sigma": "3.7373E-9", "label": "a"}, {"label": "q", "name": "q", "sigma": "1.0344E-7", "units": "au", "value": ".9805427253686487", "title": "perihelion distance"}, {"value": "21.10940525470827", "title": "inclination; angle with respect to x-y ecliptic plane", "units": "deg", "sigma": "8.104E-6", "name": "i", "label": "i"}, {"value": "86.67816852438989", "title": "longitude of the ascending node", "units": "deg", "name": "om", "sigma": "1.1859E-5", "label": "node"}, {"units": "deg", "title": "argument of perihelion", "value": "217.9304581954284", "name": "w", "sigma": "1.6554E-5", "label": "peri"}, {"label": "M", "sigma": "9.184E-6", "name": "ma", "units": "deg", "title": "mean anomaly", "value": "340.2094981567092"}, {"label": "tp", "units": "TDB", "title": "time of perihelion passage", "value": "2461257.988569504082", "sigma": "2.6832E-5", "name": "tp"}, {"label": "period", "name": "per", "sigma": "2.9075E-6", "units": "d", "value": "1045.748368856324", "title": "sidereal orbital period"}, {"label": "n", "name": "n", "sigma": "9.5714E-10", "value": ".3442510748486386", "title": "mean motion", "units": "deg/d"}, {"units": "au", "value": "3.052032784730111", "title": "aphelion distance", "name": "ad", "sigma": "5.6571E-9", "label": "Q"}], "epoch": "2461200.5"}